[{"OBJECT_NAME":"TIANMU-1 22","OBJECT_ID":"2023-208D","EPOCH":"2026-03-09T22:39:05.738688","MEAN_MOTION":15.29457749,"ECCENTRICITY":0.00031332,"INCLINATION":97.4379,"RA_OF_ASC_NODE":184.9419,"ARG_OF_PERICENTER":351.9312,"MEAN_ANOMALY":8.1877,"EPHEMERIS_TYPE":0,"CLASSIFICATION_TYPE":"U","NORAD_CAT_ID":58663,"ELEMENT_SET_NO":999,"REV_AT_EPOCH":12215,"BSTAR":0.00038239675,"MEAN_MOTION_DOT":0.00010851,"MEAN_MOTION_DDOT":0},{"OBJECT_NAME":"STARLINK-35744","OBJECT_ID":"2025-268AA","EPOCH":"2026-03-09T04:16:03.817344","MEAN_MOTION":15.27606619,"ECCENTRICITY":0.00011404,"INCLINATION":43.0035,"RA_OF_ASC_NODE":349.7631,"ARG_OF_PERICENTER":278.4478,"MEAN_ANOMALY":81.6245,"EPHEMERIS_TYPE":0,"CLASSIFICATION_TYPE":"U","NORAD_CAT_ID":66581,"ELEMENT_SET_NO":999,"REV_AT_EPOCH":1788,"BSTAR":0.0010863805,"MEAN_MOTION_DOT":0.00029778,"MEAN_MOTION_DDOT":0}]
